COSMOS 2433 (720)       
1 32275U 07052A   24209.57515893 -.00000072  00000+0  00000+0 0  9991
2 32275  65.9204 339.0420 0002963 208.5101 151.4808  2.13104027130365
COSMOS 2432 (719)       
1 32276U 07052B   24209.61139781 -.00000072  00000+0  00000+0 0  9995
2 32276  65.9353 339.1554 0007872 326.0374   7.8732  2.13103097130391
COSMOS 2434 (721)       
1 32393U 07065A   24209.37893301  .00000099  00000+0  00000+0 0  9995
2 32393  64.3214 215.2120 0000338 288.2175 173.6299  2.13103067129071
COSMOS 2436 (723)       
1 32395U 07065C   24210.12986382  .00000104  00000+0  00000+0 0  9991
2 32395  64.3300 215.2516 0016101 351.8609 101.2283  2.13102765129054
COSMOS 2456 (730)       
1 36111U 09070A   24209.28313262 -.00000026  00000+0  00000+0 0  9999
2 36111  64.6289  94.5809 0003316 330.0070 212.4340  2.13099075113726
COSMOS 2457 (733)       
1 36112U 09070B   24209.49462941 -.00000028  00000+0  00000+0 0  9994
2 36112  64.6137  94.4314 0004283 145.0248 333.0318  2.13101263113733
COSMOS 2460 (732)       
1 36402U 10007C   24209.82107958 -.00000074  00000+0  00000+0 0  9990
2 36402  65.7759 337.6926 0001505 136.9776 223.9283  2.13106183112044
COSMOS 2476 (744)       
1 37867U 11064A   24209.41693748 -.00000026  00000+0  00000+0 0  9999
2 37867  64.9015  96.2263 0021867 235.7629 321.4815  2.13101588 99061
COSMOS 2477 (745)       
1 37868U 11064B   24209.66466696 -.00000029  00000+0  00000+0 0  9990
2 37868  64.9087  96.2908 0019047 236.6867 328.9027  2.13103111 99058
COSMOS 2475 (743)       
1 37869U 11064C   24208.25122427 -.00000012  00000+0  00000+0 0  9998
2 37869  64.9152  96.3539 0023908 252.7689 266.7076  2.13101936 99040
COSMOS 2485 (747)       
1 39155U 13019A   24209.10176767 -.00000022  00000+0  00000+0 0  9992
2 39155  65.0588  96.8298 0022238 231.6852 128.1772  2.13101851 87570
COSMOS 2492 (754)       
1 39620U 14012A   24209.52628783 -.00000072  00000+0  00000+0 0  9994
2 39620  65.6573 337.2738 0010849 320.5981  39.3309  2.13103058 80544
COSMOS 2500 (755)       
1 40001U 14032A   24208.76661680 -.00000067  00000+0  00000+0 0  9993
2 40001  65.5948 337.1014 0007535 191.7216 168.2698  2.13105850 78741
COSMOS 2501 (702K)      
1 40315U 14075A   24209.48947864  .00000099  00000+0  00000+0 0  9993
2 40315  63.6228 214.2744 0021057 211.6118 148.2894  2.13101377 75150
COSMOS 2514 (751)       
1 41330U 16008A   24209.94130486 -.00000076  00000+0  00000+0 0  9990
2 41330  65.3889 336.5608 0011240 203.0056 156.9522  2.13102457 65935
COSMOS 2522 (752)       
1 42939U 17055A   24209.31224722  .00000098  00000+0  00000+0 0  9990
2 42939  64.0838 215.3943 0010419 241.7939 118.1303  2.13101859 53279
COSMOS 2527 (756)       
1 43508U 18053A   24209.27153072 -.00000024  00000+0  00000+0 0  9996
2 43508  65.2187  96.9844 0007274 228.9751 131.0239  2.13102251 47574
COSMOS 2529 (757)       
1 43687U 18086A   24209.37029883  .00000098  00000+0  00000+0 0  9993
2 43687  64.2993 215.9158 0011847 259.4464 100.4506  2.13101983 44584
COSMOS 2534 (758)       
1 44299U 19030A   24210.13104478  .00000103  00000+0  00000+0 0  9990
2 44299  64.3726 215.8472 0013655 278.3810  79.3786  2.13101980 40230
COSMOS 2544 (759)       
1 44850U 19088A   24209.21559521 -.00000023  00000+0  00000+0 0  9998
2 44850  65.2053  96.8225 0012267 256.1888 103.7370  2.13102055 36012
COSMOS 2545 (760)       
1 45358U 20018A   24209.41243536 -.00000073  00000+0  00000+0 0  9990
2 45358  64.7287 336.5570 0009109 234.7537 125.1700  2.13102429 33961
COSMOS 2547 (705K)      
1 46805U 20075A   24209.59945037  .00000100  00000+0  00000+0 0  9995
2 46805  64.6014 215.5187 0009030 242.0092 117.9298  2.13102911 29217
COSMOS 2557 (706K)      
1 52984U 22075A   24209.76474863 -.00000075  00000+0  00000+0 0  9997
2 52984  64.6560 338.6710 0011185 275.9242  83.9557  2.13102160 16013
COSMOS 2559 (707K)      
1 54031U 22130A   24208.76924562 -.00000069  00000+0  00000+0 0  9992
2 54031  64.6285 338.8219 0006694 213.9271 146.0383  2.13101411 13979
COSMOS 2564 (761)       
1 54377U 22161A   24209.42931063  .00000099  00000+0  00000+0 0  9999
2 54377  64.7426 215.6363 0011615 225.7555 134.1795  2.13102056 12933
COSMOS 2569 (703K)      
1 57517U 23114A   24208.50788809 -.00000015  00000+0  00000+0 0  9992
2 57517  64.9324  95.9812 0010121 297.8557  62.1074  2.13103690  7548
